ONEWEB-0387             
1 49313U 21090AL  26098.06433230  .00000801  00000+0  19388-2 0  9997
2 49313  87.9128 288.4589 0001426  91.7569 268.3728 13.20779765220569
ONEWEB-0388             
1 49314U 21090AM  26098.04984355  .00000025  00000+0  29506-4 0  9998
2 49314  87.9179 318.9560 0001684  89.3880 270.7446 13.19726827217164
ONEWEB-0389             
1 50469U 21132A   26098.18555833  .00000043  00000+0  78308-4 0  9992
2 50469  87.9183  19.7719 0001460  83.6885 276.4413 13.17649720208866
ONEWEB-0390             
1 50470U 21132B   26098.18725540  .00000091  00000+0  20183-3 0  9998
2 50470  87.9187  19.7719 0001813  71.1883 288.9445 13.17650562208863
ONEWEB-0391             
1 50471U 21132C   26098.18893279  .00000049  00000+0  92853-4 0  9991
2 50471  87.9186  19.7808 0000987  70.9006 289.2232 13.17649676208869
ONEWEB-0392             
1 50472U 21132D   26098.21930923  .00000031  00000+0  46063-4 0  9997
2 50472  87.9193  19.7377 0001415  81.7678 278.3614 13.17647503208906
ONEWEB-0393             
1 50473U 21132E   26098.19485489  .00000075  00000+0  16073-3 0  9992
2 50473  87.9185  19.7651 0001647  79.2155 280.9162 13.17649160208898
ONEWEB-0394             
1 50474U 21132F   26098.29145542 -.00000006  00000+0 -46691-4 0  9993
2 50474  87.9231 349.3358 0001609  85.1638 274.9678 13.18685578212385
ONEWEB-0395             
1 50475U 21132G   26098.20291714  .00000406  00000+0  11085-2 0  9997
2 50475  87.8900  34.9816 0001679  74.1534 285.9779 13.11416551206545
ONEWEB-0396             
1 50476U 21132H   26098.20898079  .00000074  00000+0  15531-3 0  9997
2 50476  87.9233 349.3643 0001637  82.9904 277.1415 13.18684545212419
ONEWEB-0397             
1 50477U 21132J   26098.22382654 -.00000053  00000+0 -16604-3 0  9998
2 50477  87.9234 349.3614 0001678  87.8167 272.3158 13.18686180212394
ONEWEB-0398             
1 50478U 21132K   26098.24699680 -.00000128  00000+0 -39817-3 0  9995
2 50478  87.8920  34.9564 0001877  69.5150 290.6179 13.11419577206449
ONEWEB-0399             
1 50479U 21132L   26098.23340809 -.00000489  00000+0 -14153-2 0  9996
2 50479  87.8921  34.9690 0001521  92.2502 267.8800 13.11415690206439
ONEWEB-0400             
1 50480U 21132M   26098.20237743  .00000089  00000+0  19339-3 0  9993
2 50480  87.9235 349.3555 0001758  74.2728 285.8598 13.18686003212385
ONEWEB-0401             
1 50481U 21132N   26098.17107547  .00002644  00000+0  66723-2 0  9995
2 50481  87.9237 349.3584 0001890  83.6465 276.4882 13.18673040212388
ONEWEB-0402             
1 50482U 21132P   26098.21063408  .00000052  00000+0  99660-4 0  9997
2 50482  87.9232 349.3412 0002067  93.4337 266.7032 13.18687809212419
