[{"OBJECT_NAME":"ONEWEB-0387","OBJECT_ID":"2021-090AL","EPOCH":"2026-04-08T01:32:38.310720","MEAN_MOTION":13.20779765,"ECCENTRICITY":0.0001426,"INCLINATION":87.9128,"RA_OF_ASC_NODE":288.4589,"ARG_OF_PERICENTER":91.7569,"MEAN_ANOMALY":268.3728,"EPHEMERIS_TYPE":0,"CLASSIFICATION_TYPE":"U","NORAD_CAT_ID":49313,"ELEMENT_SET_NO":999,"REV_AT_EPOCH":22056,"BSTAR":0.0019388,"MEAN_MOTION_DOT":8.01e-06,"MEAN_MOTION_DDOT":0.0},{"OBJECT_NAME":"ONEWEB-0388","OBJECT_ID":"2021-090AM","EPOCH":"2026-04-08T01:11:46.482720","MEAN_MOTION":13.19726827,"ECCENTRICITY":0.0001684,"INCLINATION":87.9179,"RA_OF_ASC_NODE":318.956,"ARG_OF_PERICENTER":89.388,"MEAN_ANOMALY":270.7446,"EPHEMERIS_TYPE":0,"CLASSIFICATION_TYPE":"U","NORAD_CAT_ID":49314,"ELEMENT_SET_NO":999,"REV_AT_EPOCH":21716,"BSTAR":2.9506000000000002e-05,"MEAN_MOTION_DOT":2.5e-07,"MEAN_MOTION_DDOT":0.0},{"OBJECT_NAME":"ONEWEB-0389","OBJECT_ID":"2021-132A","EPOCH":"2026-04-08T04:27:12.239712","MEAN_MOTION":13.1764972,"ECCENTRICITY":0.000146,"INCLINATION":87.9183,"RA_OF_ASC_NODE":19.7719,"ARG_OF_PERICENTER":83.6885,"MEAN_ANOMALY":276.4413,"EPHEMERIS_TYPE":0,"CLASSIFICATION_TYPE":"U","NORAD_CAT_ID":50469,"ELEMENT_SET_NO":999,"REV_AT_EPOCH":20886,"BSTAR":7.830800000000001e-05,"MEAN_MOTION_DOT":4.3e-07,"MEAN_MOTION_DDOT":0.0},{"OBJECT_NAME":"ONEWEB-0390","OBJECT_ID":"2021-132B","EPOCH":"2026-04-08T04:29:38.866560","MEAN_MOTION":13.17650562,"ECCENTRICITY":0.0001813,"INCLINATION":87.9187,"RA_OF_ASC_NODE":19.7719,"ARG_OF_PERICENTER":71.1883,"MEAN_ANOMALY":288.9445,"EPHEMERIS_TYPE":0,"CLASSIFICATION_TYPE":"U","NORAD_CAT_ID":50470,"ELEMENT_SET_NO":999,"REV_AT_EPOCH":20886,"BSTAR":0.00020183,"MEAN_MOTION_DOT":9.1e-07,"MEAN_MOTION_DDOT":0.0},{"OBJECT_NAME":"ONEWEB-0391","OBJECT_ID":"2021-132C","EPOCH":"2026-04-08T04:32:03.793056","MEAN_MOTION":13.17649676,"ECCENTRICITY":9.87e-05,"INCLINATION":87.9186,"RA_OF_ASC_NODE":19.7808,"ARG_OF_PERICENTER":70.9006,"MEAN_ANOMALY":289.2232,"EPHEMERIS_TYPE":0,"CLASSIFICATION_TYPE":"U","NORAD_CAT_ID":50471,"ELEMENT_SET_NO":999,"REV_AT_EPOCH":20886,"BSTAR":9.2853e-05,"MEAN_MOTION_DOT":4.9e-07,"MEAN_MOTION_DDOT":0.0},{"OBJECT_NAME":"ONEWEB-0392","OBJECT_ID":"2021-132D","EPOCH":"2026-04-08T05:15:48.317472","MEAN_MOTION":13.17647503,"ECCENTRICITY":0.0001415,"INCLINATION":87.9193,"RA_OF_ASC_NODE":19.7377,"ARG_OF_PERICENTER":81.7678,"MEAN_ANOMALY":278.3614,"EPHEMERIS_TYPE":0,"CLASSIFICATION_TYPE":"U","NORAD_CAT_ID":50472,"ELEMENT_SET_NO":999,"REV_AT_EPOCH":20890,"BSTAR":4.6063e-05,"MEAN_MOTION_DOT":3.1e-07,"MEAN_MOTION_DDOT":0.0},{"OBJECT_NAME":"ONEWEB-0393","OBJECT_ID":"2021-132E","EPOCH":"2026-04-08T04:40:35.462496","MEAN_MOTION":13.1764916,"ECCENTRICITY":0.0001647,"INCLINATION":87.9185,"RA_OF_ASC_NODE":19.7651,"ARG_OF_PERICENTER":79.2155,"MEAN_ANOMALY":280.9162,"EPHEMERIS_TYPE":0,"CLASSIFICATION_TYPE":"U","NORAD_CAT_ID":50473,"ELEMENT_SET_NO":999,"REV_AT_EPOCH":20889,"BSTAR":0.00016073000000000001,"MEAN_MOTION_DOT":7.5e-07,"MEAN_MOTION_DDOT":0.0},{"OBJECT_NAME":"ONEWEB-0394","OBJECT_ID":"2021-132F","EPOCH":"2026-04-08T06:59:41.748288","MEAN_MOTION":13.18685578,"ECCENTRICITY":0.0001609,"INCLINATION":87.9231,"RA_OF_ASC_NODE":349.3358,"ARG_OF_PERICENTER":85.1638,"MEAN_ANOMALY":274.9678,"EPHEMERIS_TYPE":0,"CLASSIFICATION_TYPE":"U","NORAD_CAT_ID":50474,"ELEMENT_SET_NO":999,"REV_AT_EPOCH":21238,"BSTAR":-4.6691000000000004e-05,"MEAN_MOTION_DOT":-6e-08,"MEAN_MOTION_DDOT":0.0},{"OBJECT_NAME":"ONEWEB-0395","OBJECT_ID":"2021-132G","EPOCH":"2026-04-08T04:52:12.040896","MEAN_MOTION":13.11416551,"ECCENTRICITY":0.0001679,"INCLINATION":87.89,"RA_OF_ASC_NODE":34.9816,"ARG_OF_PERICENTER":74.1534,"MEAN_ANOMALY":285.9779,"EPHEMERIS_TYPE":0,"CLASSIFICATION_TYPE":"U","NORAD_CAT_ID":50475,"ELEMENT_SET_NO":999,"REV_AT_EPOCH":20654,"BSTAR":0.0011085000000000001,"MEAN_MOTION_DOT":4.06e-06,"MEAN_MOTION_DDOT":0.0},{"OBJECT_NAME":"ONEWEB-0396","OBJECT_ID":"2021-132H","EPOCH":"2026-04-08T05:00:55.940256","MEAN_MOTION":13.18684545,"ECCENTRICITY":0.0001637,"INCLINATION":87.9233,"RA_OF_ASC_NODE":349.3643,"ARG_OF_PERICENTER":82.9904,"MEAN_ANOMALY":277.1415,"EPHEMERIS_TYPE":0,"CLASSIFICATION_TYPE":"U","NORAD_CAT_ID":50476,"ELEMENT_SET_NO":999,"REV_AT_EPOCH":21241,"BSTAR":0.00015531,"MEAN_MOTION_DOT":7.4e-07,"MEAN_MOTION_DDOT":0.0},{"OBJECT_NAME":"ONEWEB-0397","OBJECT_ID":"2021-132J","EPOCH":"2026-04-08T05:22:18.613056","MEAN_MOTION":13.1868618,"ECCENTRICITY":0.0001678,"INCLINATION":87.9234,"RA_OF_ASC_NODE":349.3614,"ARG_OF_PERICENTER":87.8167,"MEAN_ANOMALY":272.3158,"EPHEMERIS_TYPE":0,"CLASSIFICATION_TYPE":"U","NORAD_CAT_ID":50477,"ELEMENT_SET_NO":999,"REV_AT_EPOCH":21239,"BSTAR":-0.00016604,"MEAN_MOTION_DOT":-5.3e-07,"MEAN_MOTION_DDOT":0.0},{"OBJECT_NAME":"ONEWEB-0398","OBJECT_ID":"2021-132K","EPOCH":"2026-04-08T05:55:40.523520","MEAN_MOTION":13.11419577,"ECCENTRICITY":0.0001877,"INCLINATION":87.892,"RA_OF_ASC_NODE":34.9564,"ARG_OF_PERICENTER":69.515,"MEAN_ANOMALY":290.6179,"EPHEMERIS_TYPE":0,"CLASSIFICATION_TYPE":"U","NORAD_CAT_ID":50478,"ELEMENT_SET_NO":999,"REV_AT_EPOCH":20644,"BSTAR":-0.00039817000000000005,"MEAN_MOTION_DOT":-1.28e-06,"MEAN_MOTION_DDOT":0.0},{"OBJECT_NAME":"ONEWEB-0399","OBJECT_ID":"2021-132L","EPOCH":"2026-04-08T05:36:06.458976","MEAN_MOTION":13.1141569,"ECCENTRICITY":0.0001521,"INCLINATION":87.8921,"RA_OF_ASC_NODE":34.969,"ARG_OF_PERICENTER":92.2502,"MEAN_ANOMALY":267.88,"EPHEMERIS_TYPE":0,"CLASSIFICATION_TYPE":"U","NORAD_CAT_ID":50479,"ELEMENT_SET_NO":999,"REV_AT_EPOCH":20643,"BSTAR":-0.0014153,"MEAN_MOTION_DOT":-4.89e-06,"MEAN_MOTION_DDOT":0.0},{"OBJECT_NAME":"ONEWEB-0400","OBJECT_ID":"2021-132M","EPOCH":"2026-04-08T04:51:25.409952","MEAN_MOTION":13.18686003,"ECCENTRICITY":0.0001758,"INCLINATION":87.9235,"RA_OF_ASC_NODE":349.3555,"ARG_OF_PERICENTER":74.2728,"MEAN_ANOMALY":285.8598,"EPHEMERIS_TYPE":0,"CLASSIFICATION_TYPE":"U","NORAD_CAT_ID":50480,"ELEMENT_SET_NO":999,"REV_AT_EPOCH":21238,"BSTAR":0.00019339000000000002,"MEAN_MOTION_DOT":8.9e-07,"MEAN_MOTION_DDOT":0.0},{"OBJECT_NAME":"ONEWEB-0401","OBJECT_ID":"2021-132N","EPOCH":"2026-04-08T04:06:20.920608","MEAN_MOTION":13.1867304,"ECCENTRICITY":0.000189,"INCLINATION":87.9237,"RA_OF_ASC_NODE":349.3584,"ARG_OF_PERICENTER":83.6465,"MEAN_ANOMALY":276.4882,"EPHEMERIS_TYPE":0,"CLASSIFICATION_TYPE":"U","NORAD_CAT_ID":50481,"ELEMENT_SET_NO":999,"REV_AT_EPOCH":21238,"BSTAR":0.0066723,"MEAN_MOTION_DOT":2.644e-05,"MEAN_MOTION_DDOT":0.0},{"OBJECT_NAME":"ONEWEB-0402","OBJECT_ID":"2021-132P","EPOCH":"2026-04-08T05:03:18.784512","MEAN_MOTION":13.18687809,"ECCENTRICITY":0.0002067,"INCLINATION":87.9232,"RA_OF_ASC_NODE":349.3412,"ARG_OF_PERICENTER":93.4337,"MEAN_ANOMALY":266.7032,"EPHEMERIS_TYPE":0,"CLASSIFICATION_TYPE":"U","NORAD_CAT_ID":50482,"ELEMENT_SET_NO":999,"REV_AT_EPOCH":21241,"BSTAR":9.966e-05,"MEAN_MOTION_DOT":5.2e-07,"MEAN_MOTION_DDOT":0.0}]